BEIDOU-2 IGSO-1 (C06)   
1 36828U 10036A   24352.31386235 -.00000068  00000+0  00000+0 0  9997
2 36828  54.2616 167.9049 0043091 205.9107 293.0199  1.00277813 52616
BEIDOU-2 G4 (C04)       
1 37210U 10057A   24352.55813255 -.00000108  00000+0  00000+0 0  9994
2 37210   2.2923  70.2460 0009826 187.1900 190.1870  1.00271665 51812
BEIDOU-2 IGSO-2 (C07)   
1 37256U 10068A   24351.87684880 -.00000206  00000+0  00000+0 0  9999
2 37256  48.5446 278.5887 0040230 215.7629  13.4349  1.00294572 51305
BEIDOU-2 IGSO-3 (C08)   
1 37384U 11013A   24352.47566144 -.00000185  00000+0  00000+0 0  9997
2 37384  61.6205  45.3481 0030763 183.1199 135.9640  1.00262785 50175
BEIDOU-2 IGSO-4 (C09)   
1 37763U 11038A   24352.47279222  .00000004  00000+0  00000+0 0  9992
2 37763  54.5672 170.5552 0130632 228.4897 313.9487  1.00269441 49169
BEIDOU-2 IGSO-5 (C10)   
1 37948U 11073A   24351.89708387 -.00000197  00000+0  00000+0 0  9994
2 37948  48.6797 278.2852 0102245 220.9867   3.9531  1.00290957 47641
BEIDOU-2 G5 (C05)       
1 38091U 12008A   24352.53717071  .00000060  00000+0  00000+0 0  9993
2 38091   2.2127  71.0474 0012291 226.6673  41.0666  1.00274891 46888
BEIDOU-2 M3 (C11)       
1 38250U 12018A   24352.03324582 -.00000090  00000+0  00000+0 0  9991
2 38250  56.2091 323.2448 0025111 269.1786  90.5187  1.86233575 85753
BEIDOU-2 M4 (C12)       
1 38251U 12018B   24351.96390755 -.00000090  00000+0  00000+0 0  9998
2 38251  56.1143 322.5049 0016054 272.6391  87.1619  1.86232032 85756
BEIDOU-2 M6 (C14)       
1 38775U 12050B   24352.21063330 -.00000046  00000+0  00000+0 0  9991
2 38775  56.0647  81.0540 0011197 337.9163  22.0471  1.86230923 83123
BEIDOU-2 G6 (C02)       
1 38953U 12059A   24352.57902766 -.00000172  00000+0  00000+0 0  9992
2 38953   3.0294  79.0087 0008076 285.6988  14.4264  1.00269296 44426
BEIDOU-3S IGSO-1S (C31) 
1 40549U 15019A   24352.60441678 -.00000192  00000+0  00000+0 0  9991
2 40549  50.2321 302.0158 0034653 198.1841 259.9907  1.00263344 35595
BEIDOU-3S M2S (C58)     
1 40748U 15037A   24352.16477880 -.00000090  00000+0  00000+0 0  9994
2 40748  55.3407 320.8041 0012580 264.2670  95.5747  1.86229133 63933
BEIDOU-3S M1S (C57)     
1 40749U 15037B   24352.43822077 -.00000090  00000+0  00000+0 0  9997
2 40749  55.3432 320.7815 0004491 326.6833  33.2741  1.86227586 63940
BEIDOU-3S IGSO-2S (C56) 
1 40938U 15053A   24352.61375475 -.00000130  00000+0  00000+0 0  9995
2 40938  50.0716 265.2580 0051744 188.4186 309.8844  1.00263918 33877
BEIDOU-2 IGSO-6 (C13)   
1 41434U 16021A   24351.61560062 -.00000171  00000+0  00000+0 0  9995
2 41434  59.4473  43.5137 0055239 226.7764 133.9746  1.00279215 31993
BEIDOU-2 G7 (C03)       
1 41586U 16037A   24352.56031566 -.00000349  00000+0  00000+0 0  9994
2 41586   1.8201  67.5009 0007423 337.6574 353.6983  1.00266278  1400
BEIDOU-3 M1 (C19)       
1 43001U 17069A   24350.36559784 -.00000056  00000+0  00000+0 0  9992
2 43001  56.2129  81.2352 0009156 297.3326  62.5760  1.86231049 48382
BEIDOU-3 M2 (C20)       
1 43002U 17069B   24351.91408971 -.00000048  00000+0  00000+0 0  9997
2 43002  56.2133  81.2201 0006524 322.4887  37.4758  1.86230877 48408
BEIDOU-3 M7 (C27)       
1 43107U 18003A   24352.19843231 -.00000091  00000+0  00000+0 0  9993
2 43107  54.7991 321.3134 0002725  55.3303 304.6811  1.86232347 47161
BEIDOU-3 M8 (C28)       
1 43108U 18003B   24352.14038307 -.00000091  00000+0  00000+0 0  9999
2 43108  54.7922 321.3000 0005000 271.8959  88.0324  1.86230808 47172
BEIDOU-3 M4 (C22)       
1 43207U 18018A   24352.58156152 -.00000044  00000+0  00000+0 0  9990
2 43207  56.1739  81.2442 0003981   0.2422 359.7711  1.86231089 46563
BEIDOU-3 M3 (C21)       
1 43208U 18018B   24351.57423759 -.00000050  00000+0  00000+0 0  9996
2 43208  56.1724  81.2820 0006630 309.3620  50.5872  1.86231191 46541
BEIDOU-3 M9 (C29)       
1 43245U 18029A   24352.33075994 -.00000090  00000+0  00000+0 0  9992
2 43245  54.6763 318.9983 0002073 279.2837  80.6785  1.86232550 45715
BEIDOU-3 M10 (C30)      
1 43246U 18029B   24352.26017936 -.00000090  00000+0  00000+0 0  9997
2 43246  54.6742 319.0287 0004227 349.9555  10.0214  1.86232744 45693
BEIDOU-2 IGSO-7 (C16)   
1 43539U 18057A   24352.27202417 -.00000071  00000+0  00000+0 0  9993
2 43539  55.1548 167.7900 0078658 232.0457 255.9611  1.00255898 23654
BEIDOU-3 M5 (C23)       
1 43581U 18062A   24351.94918295  .00000059  00000+0  00000+0 0  9992
2 43581  54.1129 200.9129 0001940 347.6697  12.3997  1.86228772 43443
BEIDOU-3 M6 (C24)       
1 43582U 18062B   24352.35099918  .00000054  00000+0  00000+0 0  9996
2 43582  54.1123 200.8887 0007392  41.8030 318.3250  1.86229785 43456
BEIDOU-3 M12 (C26)      
1 43602U 18067A   24351.74813294  .00000062  00000+0  00000+0 0  9996
2 43602  54.2044 199.6075 0008660  35.5874 324.5438  1.86227737 42924
BEIDOU-3 M11 (C25)      
1 43603U 18067B   24351.88166974  .00000060  00000+0  00000+0 0  9996
2 43603  54.2015 199.5676 0005247  31.9680 328.1363  1.86227249 42950
BEIDOU-3 M13 (C32)      
1 43622U 18072A   24352.37920362 -.00000046  00000+0  00000+0 0  9992
2 43622  56.1451  80.7773 0006043 290.6810  69.2673  1.86230978 42476
BEIDOU-3 M14 (C33)      
1 43623U 18072B   24352.24467356 -.00000046  00000+0  00000+0 0  9998
2 43623  56.1468  80.7752 0003290 320.3251  39.6632  1.86230942 42469
BEIDOU-3 M16 (C35)      
1 43647U 18078A   24352.40612343 -.00000090  00000+0  00000+0 0  9995
2 43647  54.5731 319.0797 0007179   9.0429 350.9557  1.86232238 41975
BEIDOU-3 M15 (C34)      
1 43648U 18078B   24351.99832429 -.00000090  00000+0  00000+0 0  9998
2 43648  54.5691 319.0960 0003926   6.4262 353.5637  1.86232066 41983
BEIDOU-3 G1 (C59)       
1 43683U 18085A   24352.55650464 -.00000274  00000+0  00000+0 0  9999
2 43683   2.6479 103.1880 0001384  70.2912 253.5928  1.00273048 22577
BEIDOU-3 M17 (C36)      
1 43706U 18093A   24352.15136843  .00000056  00000+0  00000+0 0  9997
2 43706  54.1960 200.8581 0006353 300.3464  59.6636  1.86228436 41356
BEIDOU-3 M18 (C37)      
1 43707U 18093B   24352.01521051  .00000058  00000+0  00000+0 0  9994
2 43707  54.1972 200.8544 0006234 342.5031  17.5492  1.86229953 41342
BEIDOU-3 IGSO-1 (C38)   
1 44204U 19023A   24352.61786932 -.00000221  00000+0  00000+0 0  9991
2 44204  57.9119  43.3088 0023864 222.4011 159.8361  1.00299316  1734
BEIDOU-2 G8 (C01)       
1 44231U 19027A   24352.59993311 -.00000243  00000+0  00000+0 0  9997
2 44231   1.9348  74.8015 0005110 203.3536 169.1070  1.00270685 20606
BEIDOU-3 IGSO-2 (C39)   
1 44337U 19035A   24352.27255352 -.00000082  00000+0  00000+0 0  9995
2 44337  55.1929 163.6617 0035374 196.7024 301.9265  1.00282707 20189
BEIDOU-3 M24 (C46)      
1 44542U 19061A   24352.08532376  .00000057  00000+0  00000+0 0  9996
2 44542  54.4236 201.1830 0009102  17.6848 342.4208  1.86229318 35603
BEIDOU-3 M23 (C45)      
1 44543U 19061B   24352.47878698  .00000053  00000+0  00000+0 0  9996
2 44543  54.4221 201.1382 0005745  15.8968 160.6160  1.86229581 35612
BEIDOU-3 IGSO-3 (C40)   
1 44709U 19073A   24352.23357859 -.00000204  00000+0  00000+0 0  9997
2 44709  55.7405 286.7839 0041306 185.2255 174.7215  1.00301340 18971
BEIDOU-3 M22 (C44)      
1 44793U 19078A   24352.46633948 -.00000090  00000+0  00000+0 0  9999
2 44793  54.4204 318.9872 0005915  12.7159 347.2850  1.86231964 34467
BEIDOU-3 M21 (C43)      
1 44794U 19078B   24348.30005826 -.00000088  00000+0  00000+0 0  9993
2 44794  54.3973 319.1045 0004021 357.9468   2.0377  1.86232394 34399
BEIDOU-3 M19 (C41)      
1 44864U 19090A   24352.28290976 -.00000046  00000+0  00000+0 0  9993
2 44864  56.0796  80.9412 0017657 279.6851  62.5654  1.86231410 34044
BEIDOU-3 M20 (C42)      
1 44865U 19090B   24351.73491799 -.00000049  00000+0  00000+0 0  9992
2 44865  56.0808  80.9931 0014973 292.3742 132.1676  1.86231353 34026
BEIDOU-3 G2 (C60)       
1 45344U 20017A   24352.56218887 -.00000138  00000+0  00000+0 0  9992
2 45344   2.5730  35.9058 0004692 228.8049 104.3779  1.00270951 17771
BEIDOU-3 G3 (C61)       
1 45807U 20040A   24352.56042309 -.00000350  00000+0  00000+0 0  9992
2 45807   1.1442  57.7307 0003400 299.0765  42.1381  1.00275369 16584
BEIDOU-3 G4 (C62)       
1 56564U 23066A   24352.60489189 -.00000106  00000+0  00000+0 0  9990
2 56564   1.6670 289.2325 0003827 268.4105 266.8345  1.00270474  5919
BEIDOU-3 M28 (C50)      
1 58654U 23207A   24351.60484243 -.00000051  00000+0  00000+0 0  9993
2 58654  55.2645  80.8532 0002578 255.4465 104.5329  1.86231955  6646
BEIDOU-3 M26 (C48)      
1 58655U 23207B   24351.94117931 -.00000050  00000+0  00000+0 0  9997
2 58655  55.2667  80.8274 0003936 244.2345 115.7348  1.86231440  6639
